COSMO-SKYMED 2          
1 32376U 07059A   26168.16104668  .00000316  00000+0  46291-4 0  9992
2 32376  97.8886 351.7594 0001351  87.1710 272.9658 14.82155005  2009
COSMO-SKYMED 3          
1 33412U 08054A   26168.14315845  .00002638  00000+0  18046-3 0  9994
2 33412  97.8281  26.7131 0014174 267.1356  92.8249 15.06953532956932
COSMO-SKYMED 4          
1 37216U 10060A   26168.17371343 -.00000269  00000+0 -27232-4 0  9996
2 37216  97.8879 351.7732 0001408  80.1411 279.9961 14.82151559844566
CYGFM04                 
1 41885U 16078B   26167.57468470  .00023651  00000+0  26669-3 0  9999
2 41885  34.9314 232.3673 0006598 189.8115 170.2483 15.61485848528908
CYGFM02                 
1 41886U 16078C   26167.57654184  .00027611  00000+0  27656-3 0  9996
2 41886  34.9393 226.9084 0007626 190.6958 169.3607 15.64470617529076
CYGFM01                 
1 41887U 16078D   26167.97585170  .00021975  00000+0  29036-3 0  9990
2 41887  34.9396 263.0479 0006767 143.1160 217.0031 15.57342309528678
CYGFM03                 
1 41891U 16078H   26167.86585821  .00023686  00000+0  28179-3 0  9994
2 41891  34.9390 233.6449 0006493 179.3170 180.7564 15.60098311528925
CSG-1                   
1 44873U 19092A   26168.18636933  .00000305  00000+0  44909-4 0  9996
2 44873  97.8888 351.7888 0001470  89.4050 270.7332 14.82153169351478
CSG-2                   
1 51444U 22008A   26168.15259545  .00000537  00000+0  73997-4 0  9992
2 51444  97.8877 351.7506 0001478  84.8143 275.3239 14.82157581236588
CSG-3                   
1 67304U 26001A   26168.06401723  .00000237  00000+0  36279-4 0  9997
2 67304  97.8887 351.6676 0001379  94.5456 265.5915 14.82153752 24441
